{
  "type": "FeatureCollection",
  "name": "corridor_assets",
  "crs": {
    "type": "name",
    "properties": {
      "name": "urn:ogc:def:crs:OGC:1.3:CRS84"
    }
  },
  "features": [
    {
      "type": "Feature",
      "properties": {
        "id": "urn:ngsi-ld:Intersection:PUNE:VN-01",
        "entityType": "Intersection",
        "name": "Viman Nagar Chowk",
        "controlType": "SIGNALIZED",
        "cycleTimeSec": 120
      },
      "geometry": {
        "type": "Point",
        "coordinates": [73.9168, 18.5602]
      }
    },
    {
      "type": "Feature",
      "properties": {
        "id": "urn:ngsi-ld:Intersection:PUNE:SN-01",
        "entityType": "Intersection",
        "name": "Somnath Nagar Chowk",
        "controlType": "SIGNALIZED",
        "cycleTimeSec": 90
      },
      "geometry": {
        "type": "Point",
        "coordinates": [73.9280, 18.5630]
      }
    },
    {
      "type": "Feature",
      "properties": {
        "id": "urn:ngsi-ld:RoadSegment:PUNE:SEG-NR-EB-01",
        "entityType": "RoadSegment",
        "name": "Nagar Road EB Approach to Viman Nagar Chowk",
        "direction": "EASTBOUND",
        "lanes": 3,
        "speedLimitKmh": 50
      },
      "geometry": {
        "type": "LineString",
        "coordinates": [
          [73.9125, 18.5592],
          [73.9168, 18.5602]
        ]
      }
    },
    {
      "type": "Feature",
      "properties": {
        "id": "urn:ngsi-ld:RoadSegment:PUNE:SEG-NR-EB-02",
        "entityType": "RoadSegment",
        "name": "Nagar Road EB Link (Viman Nagar to Somnath Nagar)",
        "direction": "EASTBOUND",
        "lanes": 3,
        "speedLimitKmh": 50
      },
      "geometry": {
        "type": "LineString",
        "coordinates": [
          [73.9168, 18.5602],
          [73.9220, 18.5615],
          [73.9280, 18.5630]
        ]
      }
    },
    {
      "type": "Feature",
      "properties": {
        "id": "urn:ngsi-ld:RoadSegment:PUNE:SEG-NR-EB-03",
        "entityType": "RoadSegment",
        "name": "Nagar Road EB Exit from Somnath Nagar Chowk",
        "direction": "EASTBOUND",
        "lanes": 3,
        "speedLimitKmh": 50
      },
      "geometry": {
        "type": "LineString",
        "coordinates": [
          [73.9280, 18.5630],
          [73.9322, 18.5641]
        ]
      }
    },
    {
      "type": "Feature",
      "properties": {
        "id": "urn:ngsi-ld:RoadSegment:PUNE:SEG-NR-WB-01",
        "entityType": "RoadSegment",
        "name": "Nagar Road WB Approach to Somnath Nagar Chowk",
        "direction": "WESTBOUND",
        "lanes": 3,
        "speedLimitKmh": 50
      },
      "geometry": {
        "type": "LineString",
        "coordinates": [
          [73.9322, 18.5643],
          [73.9280, 18.5632]
        ]
      }
    },
    {
      "type": "Feature",
      "properties": {
        "id": "urn:ngsi-ld:RoadSegment:PUNE:SEG-NR-WB-02",
        "entityType": "RoadSegment",
        "name": "Nagar Road WB Link (Somnath Nagar to Viman Nagar)",
        "direction": "WESTBOUND",
        "lanes": 3,
        "speedLimitKmh": 50
      },
      "geometry": {
        "type": "LineString",
        "coordinates": [
          [73.9280, 18.5632],
          [73.9220, 18.5617],
          [73.9168, 18.5604]
        ]
      }
    },
    {
      "type": "Feature",
      "properties": {
        "id": "urn:ngsi-ld:RoadSegment:PUNE:SEG-NR-WB-03",
        "entityType": "RoadSegment",
        "name": "Nagar Road WB Exit Past Viman Nagar Chowk",
        "direction": "WESTBOUND",
        "lanes": 3,
        "speedLimitKmh": 50
      },
      "geometry": {
        "type": "LineString",
        "coordinates": [
          [73.9168, 18.5604],
          [73.9125, 18.5594]
        ]
      }
    },
    {
      "type": "Feature",
      "properties": {
        "id": "urn:ngsi-ld:RoadSegment:PUNE:SEG-VN-NB-01",
        "entityType": "RoadSegment",
        "name": "Viman Nagar Road NB Approach to Chowk",
        "direction": "NORTHBOUND",
        "lanes": 2,
        "speedLimitKmh": 40
      },
      "geometry": {
        "type": "LineString",
        "coordinates": [
          [73.9165, 18.5570],
          [73.9168, 18.5602]
        ]
      }
    },
    {
      "type": "Feature",
      "properties": {
        "id": "urn:ngsi-ld:RoadSegment:PUNE:SEG-VN-SB-01",
        "entityType": "RoadSegment",
        "name": "Viman Nagar Road SB Interior Branch",
        "direction": "SOUTHBOUND",
        "lanes": 2,
        "speedLimitKmh": 40
      },
      "geometry": {
        "type": "LineString",
        "coordinates": [
          [73.9168, 18.5604],
          [73.9171, 18.5640]
        ]
      }
    },
    {
      "type": "Feature",
      "properties": {
        "id": "urn:ngsi-ld:RoadSegment:PUNE:SEG-SN-NB-01",
        "entityType": "RoadSegment",
        "name": "Somnath Nagar Road NB Approach to Chowk",
        "direction": "NORTHBOUND",
        "lanes": 2,
        "speedLimitKmh": 35
      },
      "geometry": {
        "type": "LineString",
        "coordinates": [
          [73.9278, 18.5603],
          [73.9280, 18.5630]
        ]
      }
    },
    {
      "type": "Feature",
      "properties": {
        "id": "urn:ngsi-ld:RoadSegment:PUNE:SEG-SN-SB-01",
        "entityType": "RoadSegment",
        "name": "Somnath Nagar Road SB Exit to Wadgaon Sheri",
        "direction": "SOUTHBOUND",
        "lanes": 2,
        "speedLimitKmh": 35
      },
      "geometry": {
        "type": "LineString",
        "coordinates": [
          [73.9280, 18.5630],
          [73.9282, 18.5658]
        ]
      }
    }
  ]
}
